{
    "links": {
        "self": "http://www.neowsapp.com/rest/v1/neo/3719860?api_key=iIulBulltgU6a56xZRHN4H3l9WmuAYTsLGpBGhQ2"
    },
    "id": "3719860",
    "neo_reference_id": "3719860",
    "name": "(2015 KN57)",
    "designation": "2015 KN57",
    "nasa_jpl_url": "http://ssd.jpl.nasa.gov/sbdb.cgi?sstr=3719860",
    "absolute_magnitude_h": 25.7,
    "estimated_diameter": {
        "kilometers": {
            "estimated_diameter_min": 0.0192555078,
            "estimated_diameter_max": 0.0430566244
        },
        "meters": {
            "estimated_diameter_min": 19.2555078188,
            "estimated_diameter_max": 43.0566244241
        },
        "miles": {
            "estimated_diameter_min": 0.0119648141,
            "estimated_diameter_max": 0.0267541378
        },
        "feet": {
            "estimated_diameter_min": 63.1742402722,
            "estimated_diameter_max": 141.2618956756
        }
    },
    "is_potentially_hazardous_asteroid": false,
    "close_approach_data": [
        {
            "close_approach_date": "2015-05-28",
            "close_approach_date_full": "2015-May-28 15:37",
            "epoch_date_close_approach": 1432827420000,
            "relative_velocity": {
                "kilometers_per_second": "9.1372904251",
                "kilometers_per_hour": "32894.2455304043",
                "miles_per_hour": "20439.2049519337"
            },
            "miss_distance": {
                "astronomical": "0.0963723701",
                "lunar": "37.4888519689",
                "kilometers": "14417101.293811687",
                "miles": "8958371.3387758006"
            },
            "orbiting_body": "Earth"
        }
    ],
    "orbital_data": {
        "orbit_id": "6",
        "orbit_determination_date": "2017-04-06 08:33:34",
        "first_observation_date": "2015-05-22",
        "last_observation_date": "2015-05-27",
        "data_arc_in_days": 5,
        "observations_used": 16,
        "orbit_uncertainty": "8",
        "minimum_orbit_intersection": ".0946928",
        "jupiter_tisserand_invariant": "5.003",
        "epoch_osculation": "2457166.5",
        "eccentricity": ".1473036354032576",
        "semi_major_axis": "1.279418143269516",
        "inclination": "17.36945219534874",
        "ascending_node_longitude": "243.0494803445152",
        "orbital_period": "528.587859986981",
        "perihelion_distance": "1.09095519956503",
        "perihelion_argument": "30.14831809512454",
        "aphelion_distance": "1.467881086974001",
        "perihelion_time": "2457200.834522917395",
        "mean_anomaly": "336.616132934709",
        "mean_motion": ".6810599093381878",
        "equinox": "J2000",
        "orbit_class": {
            "orbit_class_type": "AMO",
            "orbit_class_description": "Near-Earth asteroid orbits similar to that of 1221 Amor",
            "orbit_class_range": "1.017 AU < q (perihelion) < 1.3 AU"
        }
    },
    "is_sentry_object": false
}